start=new Date('2022-08-03T00:00:00.000Z').valueOf();
sats=[{"DECAY_DATE":null,"GP_ID":"209456418","OBJECT_NAME":"STARLINK-3363","EPOCH":"2022-08-02T19:06:05.482656","LAUNCH_DATE":"2022-01-19","MEAN_ELEMENT_THEORY":"SGP4","MEAN_ANOMALY":"294.7629","BSTAR":"0.00000025178000","CENTER_NAME":"EARTH","OBJECT_ID":"2022-005AH","COUNTRY_CODE":"US","SEMIMAJOR_AXIS":"6917.910","SITE":"AFETR","PERIAPSIS":"538.490","TIME_SYSTEM":"UTC","OBJECT_TYPE":"PAYLOAD","REF_FRAME":"TEME","APOAPSIS":"541.060","CLASSIFICATION_TYPE":"U","EPHEMERIS_TYPE":"0","MEAN_MOTION_DDOT":"0.0000000000000","FILE":"3527804","TLE_LINE1":"1 51135U 22005AH  22214.79589679 -.00000284  00000-0  25178-6 0  9999","MEAN_MOTION":"15.08830349","REV_AT_EPOCH":"3022","ELEMENT_SET_NO":"999","RA_OF_ASC_NODE":"81.9245","PERIOD":"95.438","RCS_SIZE":"LARGE","ARG_OF_PERICENTER":"65.3556","NORAD_CAT_ID":"51135","INCLINATION":"53.2170","ECCENTRICITY":"0.00018580","MEAN_MOTION_DOT":"-0.00000284","TLE_LINE2":"2 51135  53.2170  81.9245 0001858  65.3556 294.7629 15.08830349 30223"},{"PERIOD":"95.437","RA_OF_ASC_NODE":"83.9950","ELEMENT_SET_NO":"999","REV_AT_EPOCH":"3128","MEAN_MOTION":"15.08841838","TLE_LINE1":"1 51136U 22005AJ  22214.33317427  .00000523  00000-0  50991-4 0  9994","FILE":"3527755","MEAN_MOTION_DDOT":"0.0000000000000","EPHEMERIS_TYPE":"0","CLASSIFICATION_TYPE":"U","TLE_LINE2":"2 51136  53.2170  83.9950 0001913  57.1276 302.9900 15.08841838 31285","MEAN_MOTION_DOT":"0.00000523","ECCENTRICITY":"0.00019130","INCLINATION":"53.2170","NORAD_CAT_ID":"51136","ARG_OF_PERICENTER":"57.1276","RCS_SIZE":"LARGE","BSTAR":"0.00005099100000","MEAN_ANOMALY":"302.9900","EPOCH":"2022-08-02T07:59:46.256928","LAUNCH_DATE":"2022-01-19","MEAN_ELEMENT_THEORY":"SGP4","OBJECT_NAME":"STARLINK-3253","DECAY_DATE":null,"GP_ID":"209432489","APOAPSIS":"541.063","REF_FRAME":"TEME","OBJECT_TYPE":"PAYLOAD","TIME_SYSTEM":"UTC","PERIAPSIS":"538.416","SITE":"AFETR","SEMIMAJOR_AXIS":"6917.875","COUNTRY_CODE":"US","CENTER_NAME":"EARTH","OBJECT_ID":"2022-005AJ"},{"FILE":"3527697","MEAN_MOTION_DDOT":"0.0000000000000","EPHEMERIS_TYPE":"0","CLASSIFICATION_TYPE":"U","MEAN_MOTION":"15.08842881","TLE_LINE1":"1 51137U 22005AK  22214.45365142  .00000759  00000-0  65822-4 0  9995","REV_AT_EPOCH":"3018","PERIOD":"95.437","RA_OF_ASC_NODE":"83.4470","ELEMENT_SET_NO":"999","ARG_OF_PERICENTER":"54.5469","RCS_SIZE":"LARGE","NORAD_CAT_ID":"51137","ECCENTRICITY":"0.00022800","INCLINATION":"53.2186","TLE_LINE2":"2 51137  53.2186  83.4470 0002280  54.5469 305.5735 15.08842881 30180","MEAN_MOTION_DOT":"0.00000759","GP_ID":"209430455","DECAY_DATE":null,"MEAN_ELEMENT_THEORY":"SGP4","LAUNCH_DATE":"2022-01-19","EPOCH":"2022-08-02T10:53:15.482688","OBJECT_NAME":"STARLINK-3180","BSTAR":"0.00006582200000","MEAN_ANOMALY":"305.5735","COUNTRY_CODE":"US","CENTER_NAME":"EARTH","OBJECT_ID":"2022-005AK","SITE":"AFETR","SEMIMAJOR_AXIS":"6917.872","OBJECT_TYPE":"PAYLOAD","TIME_SYSTEM":"UTC","PERIAPSIS":"538.159","APOAPSIS":"541.314","REF_FRAME":"TEME"},{"TLE_LINE1":"1 51138U 22005AL  22214.32853471  .00000806  00000-0  68769-4 0  9995","MEAN_MOTION":"15.08837183","CLASSIFICATION_TYPE":"U","EPHEMERIS_TYPE":"0","MEAN_MOTION_DDOT":"0.0000000000000","FILE":"3527697","RA_OF_ASC_NODE":"83.9982","ELEMENT_SET_NO":"999","PERIOD":"95.438","REV_AT_EPOCH":"3015","NORAD_CAT_ID":"51138","RCS_SIZE":"LARGE","ARG_OF_PERICENTER":"59.5261","MEAN_MOTION_DOT":"0.00000806","TLE_LINE2":"2 51138  53.2164  83.9982 0001932  59.5261 300.5922 15.08837183 30157","INCLINATION":"53.2164","ECCENTRICITY":"0.00019320","GP_ID":"209429203","DECAY_DATE":null,"MEAN_ANOMALY":"300.5922","BSTAR":"0.00006876900000","OBJECT_NAME":"STARLINK-3177","LAUNCH_DATE":"2022-01-19","EPOCH":"2022-08-02T07:53:05.398944","MEAN_ELEMENT_THEORY":"SGP4","SEMIMAJOR_AXIS":"6917.889","SITE":"AFETR","OBJECT_ID":"2022-005AL","CENTER_NAME":"EARTH","COUNTRY_CODE":"US","REF_FRAME":"TEME","APOAPSIS":"541.091","PERIAPSIS":"538.417","TIME_SYSTEM":"UTC","OBJECT_TYPE":"PAYLOAD"},{"TLE_LINE1":"1 51139U 22005AM  22214.84372709  .00000847  00000-0  71329-4 0  9994","MEAN_MOTION":"15.08843549","CLASSIFICATION_TYPE":"U","EPHEMERIS_TYPE":"0","MEAN_MOTION_DDOT":"0.0000000000000","FILE":"3527804","ELEMENT_SET_NO":"999","RA_OF_ASC_NODE":"81.6911","PERIOD":"95.437","REV_AT_EPOCH":"3024","NORAD_CAT_ID":"51139","RCS_SIZE":"LARGE","ARG_OF_PERICENTER":"61.0649","MEAN_MOTION_DOT":"0.00000847","TLE_LINE2":"2 51139  53.2188  81.6911 0002070  61.0649 299.0551 15.08843549 30246","INCLINATION":"53.2188","ECCENTRICITY":"0.00020700","DECAY_DATE":null,"GP_ID":"209456919","MEAN_ANOMALY":"299.0551","BSTAR":"0.00007132900000","OBJECT_NAME":"STARLINK-3172","LAUNCH_DATE":"2022-01-19","EPOCH":"2022-08-02T20:14:58.020576","MEAN_ELEMENT_THEORY":"SGP4","SEMIMAJOR_AXIS":"6917.870","SITE":"AFETR","CENTER_NAME":"EARTH","OBJECT_ID":"2022-005AM","COUNTRY_CODE":"US","REF_FRAME":"TEME","APOAPSIS":"541.167","PERIAPSIS":"538.303","TIME_SYSTEM":"UTC","OBJECT_TYPE":"PAYLOAD"},{"OBJECT_TYPE":"PAYLOAD","PERIAPSIS":"538.431","TIME_SYSTEM":"UTC","REF_FRAME":"TEME","APOAPSIS":"541.135","CENTER_NAME":"EARTH","OBJECT_ID":"2022-005AN","COUNTRY_CODE":"US","SITE":"AFETR","SEMIMAJOR_AXIS":"6917.918","MEAN_ELEMENT_THEORY":"SGP4","LAUNCH_DATE":"2022-01-19","EPOCH":"2022-08-02T01:26:15.864576","OBJECT_NAME":"STARLINK-3175","BSTAR":"0.00000708550000","MEAN_ANOMALY":"297.2701","DECAY_DATE":null,"GP_ID":"209430205","INCLINATION":"53.2172","ECCENTRICITY":"0.00019540","TLE_LINE2":"2 51140  53.2172  85.2127 0001954  62.8490 297.2701 15.08827721 30121","MEAN_MOTION_DOT":"-0.00000175","ARG_OF_PERICENTER":"62.8490","RCS_SIZE":"LARGE","NORAD_CAT_ID":"51140","REV_AT_EPOCH":"3012","ELEMENT_SET_NO":"999","RA_OF_ASC_NODE":"85.2127","PERIOD":"95.438","MEAN_MOTION_DDOT":"0.0000000000000","FILE":"3527697","CLASSIFICATION_TYPE":"U","EPHEMERIS_TYPE":"0","TLE_LINE1":"1 51140U 22005AN  22214.05990584 -.00000175  00000-0  70855-5 0  9995","MEAN_MOTION":"15.08827721"},{"TLE_LINE1":"1 51141U 22005AP  22214.37269876 -.00000379  00000-0 -56997-5 0  9992","MEAN_MOTION":"15.08833427","CLASSIFICATION_TYPE":"U","EPHEMERIS_TYPE":"0","MEAN_MOTION_DDOT":"0.0000000000000","FILE":"3527697","RA_OF_ASC_NODE":"83.8115","ELEMENT_SET_NO":"999","PERIOD":"95.438","REV_AT_EPOCH":"3017","NORAD_CAT_ID":"51141","RCS_SIZE":"LARGE","ARG_OF_PERICENTER":"60.0547","MEAN_MOTION_DOT":"-0.00000379","TLE_LINE2":"2 51141  53.2192  83.8115 0002142  60.0547 300.0658 15.08833427 30177","INCLINATION":"53.2192","ECCENTRICITY":"0.00021420","DECAY_DATE":null,"GP_ID":"209429956","MEAN_ANOMALY":"300.0658","BSTAR":"-0.00000569970000","OBJECT_NAME":"STARLINK-3179","LAUNCH_DATE":"2022-01-19","EPOCH":"2022-08-02T08:56:41.172864","MEAN_ELEMENT_THEORY":"SGP4","SEMIMAJOR_AXIS":"6917.900","SITE":"AFETR","OBJECT_ID":"2022-005AP","CENTER_NAME":"EARTH","COUNTRY_CODE":"US","REF_FRAME":"TEME","APOAPSIS":"541.247","PERIAPSIS":"538.284","TIME_SYSTEM":"UTC","OBJECT_TYPE":"PAYLOAD"},{"CENTER_NAME":"EARTH","OBJECT_ID":"2022-005AQ","COUNTRY_CODE":"US","SITE":"AFETR","SEMIMAJOR_AXIS":"6917.930","OBJECT_TYPE":"PAYLOAD","PERIAPSIS":"538.627","TIME_SYSTEM":"UTC","REF_FRAME":"TEME","APOAPSIS":"540.962","GP_ID":"209428704","DECAY_DATE":null,"LAUNCH_DATE":"2022-01-19","EPOCH":"2022-08-02T14:00:01.000224","MEAN_ELEMENT_THEORY":"SGP4","OBJECT_NAME":"STARLINK-3369","BSTAR":"0.00182390000000","MEAN_ANOMALY":"35.5341","ARG_OF_PERICENTER":"59.2397","RCS_SIZE":"LARGE","NORAD_CAT_ID":"51142","INCLINATION":"53.2184","ECCENTRICITY":"0.00016880","TLE_LINE2":"2 51142  53.2184  72.8665 0001688  59.2397  35.5341 15.08823892  1301","MEAN_MOTION_DOT":"0.00028846","MEAN_MOTION_DDOT":"0.0000000000000","FILE":"3527697","CLASSIFICATION_TYPE":"U","EPHEMERIS_TYPE":"0","TLE_LINE1":"1 51142U 22005AQ  22214.58334491  .00028846  00000-0  18239-2 0  9993","MEAN_MOTION":"15.08823892","REV_AT_EPOCH":"130","RA_OF_ASC_NODE":"72.8665","ELEMENT_SET_NO":"999","PERIOD":"95.439"},{"OBJECT_NAME":"STARLINK-3184","LAUNCH_DATE":"2022-01-19","EPOCH":"2022-08-02T08:34:09.772320","MEAN_ELEMENT_THEORY":"SGP4","MEAN_ANOMALY":"292.5823","BSTAR":"0.00001987800000","DECAY_DATE":null,"GP_ID":"209429454","PERIAPSIS":"537.781","TIME_SYSTEM":"UTC","OBJECT_TYPE":"PAYLOAD","REF_FRAME":"TEME","APOAPSIS":"541.755","CENTER_NAME":"EARTH","OBJECT_ID":"2022-005AR","COUNTRY_CODE":"US","SEMIMAJOR_AXIS":"6917.903","SITE":"AFETR","REV_AT_EPOCH":"3002","ELEMENT_SET_NO":"999","RA_OF_ASC_NODE":"93.8926","PERIOD":"95.438","CLASSIFICATION_TYPE":"U","EPHEMERIS_TYPE":"0","MEAN_MOTION_DDOT":"0.0000000000000","FILE":"3527697","TLE_LINE1":"1 51143U 22005AR  22214.35705755  .00000028  00000-0  19878-4 0  9998","MEAN_MOTION":"15.08832646","INCLINATION":"53.2178","ECCENTRICITY":"0.00028720","MEAN_MOTION_DOT":"0.00000028","TLE_LINE2":"2 51143  53.2178  93.8926 0002872  67.5473 292.5823 15.08832646 30029","RCS_SIZE":"LARGE","ARG_OF_PERICENTER":"67.5473","NORAD_CAT_ID":"51143"},{"MEAN_ANOMALY":"292.2486","BSTAR":"0.00039296000000","OBJECT_NAME":"STARLINK-3185","EPOCH":"2022-08-02T20:09:40.343328","LAUNCH_DATE":"2022-01-19","MEAN_ELEMENT_THEORY":"SGP4","DECAY_DATE":null,"GP_ID":"209457671","APOAPSIS":"540.990","REF_FRAME":"TEME","TIME_SYSTEM":"UTC","PERIAPSIS":"538.415","OBJECT_TYPE":"PAYLOAD","SEMIMAJOR_AXIS":"6917.838","SITE":"AFETR","COUNTRY_CODE":"US","CENTER_NAME":"EARTH","OBJECT_ID":"2022-005AS","PERIOD":"95.437","RA_OF_ASC_NODE":"81.7094","ELEMENT_SET_NO":"999","REV_AT_EPOCH":"3024","MEAN_MOTION":"15.08854008","TLE_LINE1":"1 51144U 22005AS  22214.84005027  .00005974  00000-0  39296-3 0  9998","EPHEMERIS_TYPE":"0","CLASSIFICATION_TYPE":"U","FILE":"3527804","MEAN_MOTION_DDOT":"0.0000000000000","MEAN_MOTION_DOT":"0.00005974","TLE_LINE2":"2 51144  53.2174  81.7094 0001861  67.8704 292.2486 15.08854008 30247","ECCENTRICITY":"0.00018610","INCLINATION":"53.2174","NORAD_CAT_ID":"51144","RCS_SIZE":"LARGE","ARG_OF_PERICENTER":"67.8704"}];
